[{"OBJECT_NAME":"IRIDIUM 124","OBJECT_ID":"2017-039H","EPOCH":"2026-03-09T23:29:37.068864","MEAN_MOTION":14.432748,"ECCENTRICITY":0.0002084,"INCLINATION":86.4531,"RA_OF_ASC_NODE":331.8553,"ARG_OF_PERICENTER":84.6213,"MEAN_ANOMALY":275.5226,"EPHEMERIS_TYPE":0,"CLASSIFICATION_TYPE":"U","NORAD_CAT_ID":42810,"ELEMENT_SET_NO":999,"REV_AT_EPOCH":46080,"BSTAR":0.00013794234,"MEAN_MOTION_DOT":4.84e-6,"MEAN_MOTION_DDOT":0},{"OBJECT_NAME":"DMSP 5D-2 F12 DEB","OBJECT_ID":"1994-057G","EPOCH":"2026-03-09T06:50:54.367872","MEAN_MOTION":14.42365158,"ECCENTRICITY":0.00054292,"INCLINATION":98.949,"RA_OF_ASC_NODE":190.7251,"ARG_OF_PERICENTER":83.6961,"MEAN_ANOMALY":276.4846,"EPHEMERIS_TYPE":0,"CLASSIFICATION_TYPE":"U","NORAD_CAT_ID":43344,"ELEMENT_SET_NO":999,"REV_AT_EPOCH":48650,"BSTAR":0.0027738074,"MEAN_MOTION_DOT":9.133e-5,"MEAN_MOTION_DDOT":0}]
